UNKNOWN                 
1 87706U          25356.28528785  .00005246  00000+0  92464-3 0  9998
2 87706  98.6719 180.3802 0104395 238.0686 301.8977 14.64473681579917
UNKNOWN                 
1 87725U          25355.42544607  .00024774  00000+0  21048-2 0  9991
2 87725  82.8656 247.9344 0018412  29.2216 331.0033 14.97622811635229
UNKNOWN                 
1 87730U          25354.37869688  .00000110  00000+0  10047-3 0  9995
2 87730  82.9445 228.4492 0029805 345.0478  14.9793 13.74507095586389
UNKNOWN                 
1 87737U          25352.09766773  .00000025  00000+0  70202-4 0  9995
2 87737  99.3741 223.7797 0133152 175.4171 184.8230 13.72341587604596
UNKNOWN                 
1 87764U          25355.82286722  .00003418  00000+0  59510-3 0  9997
2 87764  65.6717 137.4567 0359384  71.9933  72.2361 14.34950709620420
UNKNOWN                 
1 87771U          25353.36172666  .00000092  00000+0  33725-3 0  9998
2 87771 100.7425 189.6706 0119757 347.3797  12.4327 13.19518962535960
UNKNOWN                 
1 87782U          25353.92075727  .00001564  00000+0  53196-2 0  9990
2 87782 102.3410 226.4636 0044553 235.4264 124.2625 13.00443526568921
UNKNOWN                 
1 87843U          25347.14394888  .00002857  00000+0  66071-2 0  9999
2 87843  99.6629 101.2591 0231272   3.4413 356.8231 13.16548050564213
UNKNOWN                 
1 87845U          25354.13874521  .00000573  00000+0  11342-2 0  9999
2 87845  98.8580 310.1873 0575644 236.6825 117.7894 12.88936716566160
UNKNOWN                 
1 87878U          25354.06813746  .00002546  00000+0  80538-3 0  9995
2 87878  99.1582 114.0721 0035758 243.6666 116.0847 14.40761210612351
UNKNOWN                 
1 87884U          25355.54223154  .00000015  00000+0  31168-4 0  9999
2 87884  98.7350  99.0792 0154535  43.8328 317.4984 14.05991137619604
UNKNOWN                 
1 87991U          25353.91297559  .00002232  00000+0  44674-2 0  9994
2 87991  28.6179 229.9811 0884884  87.7318 282.4123 12.35137390523887
